OBJECT_NAME,OBJECT_ID,EPOCH,MEAN_MOTION,ECCENTRICITY,INCLINATION,RA_OF_ASC_NODE,ARG_OF_PERICENTER,MEAN_ANOMALY,EPHEMERIS_TYPE,CLASSIFICATION_TYPE,NORAD_CAT_ID,ELEMENT_SET_NO,REV_AT_EPOCH,BSTAR,MEAN_MOTION_DOT,MEAN_MOTION_DDOT
STARLINK-2249,2021-041AR,2026-02-22T19:19:14.368224,15.06395967,.00012537,53.0555,208.6676,95.9721,264.1411,0,U,48592,999,26281,.70098682E-4,.763E-5,0
STARLINK-2250,2021-041AS,2026-02-22T22:00:01.999584,15.11197554,.00004061,53.0743,207.8948,84.2580,265.1527,0,U,48593,999,572,.83659524E-1,.1542173E-1,0
STARLINK-2251,2021-041AT,2026-02-22T19:39:06.200928,15.06413342,.00014085,53.0540,178.4632,66.0986,294.0151,0,U,48594,999,26324,.23117808E-3,.3165E-4,0
STARLINK-2252,2021-041AU,2026-02-22T20:06:57.935520,15.06404499,.00013603,53.0553,208.2882,98.9100,261.2043,0,U,48595,999,26409,-.89434917E-4,-.1613E-4,0
STARLINK-2253,2021-041AV,2026-02-22T22:00:01.999584,15.16419599,.00016368,53.0972,207.7136,68.6738,1.3160,0,U,48596,999,567,.58538527E-1,.1243101E-1,0
STARLINK-2255,2021-041AW,2026-02-22T22:00:01.999584,15.16243956,.000063,53.0966,207.7446,47.8769,324.2941,0,U,48597,999,584,.66525388E-1,.1421762E-1,0
STARLINK-2713,2021-041BB,2026-02-22T22:00:01.999584,15.24021044,.00009677,53.1315,182.3646,96.9560,143.4096,0,U,48602,999,578,.62879078E-1,.1683986E-1,0
STARLINK-2714,2021-041BC,2026-02-22T20:14:55.016448,15.06392300,.00008128,53.0546,178.2644,73.3334,286.7744,0,U,48603,999,26451,.24812756E-3,.3416E-4,0
STARLINK-2757,2021-041BD,2026-02-22T20:17:33.144000,15.06410543,.00012768,53.0564,208.2562,92.8814,267.2321,0,U,48604,999,26409,.16829454E-3,.2227E-4,0
TYVAK-0130,2021-041BF,2026-02-22T16:21:41.918688,15.25698057,.00109869,52.9928,197.1699,168.2832,191.8423,0,U,48606,999,26289,.44649116E-3,.11216E-3,0
SBIRS GEO-5 (USA 315),2021-042A,2026-02-22T19:59:57.912288,1.00271180,.00016061,5.2497,328.2589,334.7054,243.5347,0,U,48618,999,1762,0,-.261E-5,0
HAIYANG-2D,2021-043A,2026-02-22T22:07:53.186304,13.83372438,.00102242,65.9964,229.1805,279.8975,80.0939,0,U,48621,999,24074,.21923038E-4,-.57E-6,0
STARLINK-2739,2021-044B,2026-02-22T22:00:01.999584,15.23409360,.00008794,53.1287,182.3868,81.3953,231.8350,0,U,48639,999,573,.65775688E-1,.1734656E-1,0
STARLINK-2736,2021-044C,2026-02-22T22:00:01.999584,15.27279351,.00011649,53.1470,182.4191,115.1710,9.0457,0,U,48640,999,578,.59391372E-1,.1760266E-1,0
STARLINK-2754,2021-044D,2026-02-22T20:02:56.517504,15.30205364,.00013187,53.1598,182.8815,89.3261,270.7891,0,U,48641,999,26155,.4583138E-3,.13241E-3,0
STARLINK-2646,2021-044E,2026-02-22T15:48:06.192000,15.30174423,.0000986,53.1600,183.7644,85.9813,274.1300,0,U,48642,999,26152,-.69116E-4,-.2404E-4,0
STARLINK-2704,2021-044F,2026-02-22T19:53:48.020064,15.30215115,.00013007,53.1603,182.8844,69.6326,290.4815,0,U,48643,999,26155,.45343033E-3,.131E-3,0
STARLINK-2695,2021-044G,2026-02-22T18:42:33.389568,15.30198879,.00013719,53.1602,183.3097,98.0685,262.0472,0,U,48644,999,26154,.37454637E-3,.10749E-3,0
STARLINK-2732,2021-044J,2026-02-22T18:09:08.485344,15.30197141,.00014348,53.1617,183.2579,84.3271,275.7893,0,U,48646,999,26154,-.15460281E-4,-.817E-5,0
STARLINK-2521,2021-044L,2026-02-22T17:55:28.699680,15.30201704,.00014738,53.1623,183.2596,96.8961,263.2208,0,U,48648,999,26154,.14783019E-3,.4022E-4,0
STARLINK-2673,2021-044M,2026-02-22T17:50:55.880448,15.30188049,.00014247,53.1615,183.2646,82.3044,277.8119,0,U,48649,999,26153,.16297183E-4,.123E-5,0
STARLINK-2672,2021-044N,2026-02-22T21:08:08.999808,15.30204128,.00012769,53.1598,182.7262,67.3906,292.7230,0,U,48650,999,26155,.15383113E-3,.42E-4,0
STARLINK-2731,2021-044P,2026-02-22T17:46:22.880640,15.30198151,.00012421,53.1615,183.3168,74.2737,285.8401,0,U,48651,999,26153,.16615635E-3,.4565E-4,0
STARLINK-2727,2021-044Q,2026-02-22T22:09:23.558112,15.28082336,.00004907,53.0512,181.2699,96.7383,263.3672,0,U,48652,999,26157,.54902279E-3,.14916E-3,0
STARLINK-2720,2021-044R,2026-02-22T22:14:52.660896,15.30177647,.00013434,53.1600,182.4297,79.7384,280.3768,0,U,48653,999,26156,.21797851E-3,.6098E-4,0
STARLINK-2657,2021-044T,2026-02-22T20:45:23.017536,15.30235468,.00014264,53.1615,182.8190,90.7874,269.3290,0,U,48655,999,26155,.41084022E-3,.11841E-3,0
STARLINK-2701,2021-044U,2026-02-22T20:25:39.664992,15.30198667,.00012611,53.1581,182.7841,80.7096,279.4047,0,U,48656,999,26155,.24923865E-3,.7029E-4,0
STARLINK-2734,2021-044V,2026-02-22T18:47:03.293664,15.30196493,.00015216,53.1603,183.0878,74.9325,285.1845,0,U,48657,999,26154,.28329448E-4,.48E-5,0
STARLINK-2647,2021-044W,2026-02-22T15:29:51.527328,15.30197635,.00014671,53.1631,183.7210,116.2899,243.8252,0,U,48658,999,26152,-.8644263E-5,-.615E-5,0
STARLINK-2717,2021-044X,2026-02-22T20:07:27.210432,15.30194808,.00011355,53.1585,182.8252,85.6694,274.4437,0,U,48659,999,26155,.65762432E-4,.1589E-4,0
