STARLINK-2249           
1 48592U 21041AR  26053.80502741  .00000763  00000+0  70099-4 0  9993
2 48592  53.0555 208.6676 0001253  95.9721 264.1411 15.06395967262811
STARLINK-2250           
1 48593U 21041AS  26053.91668981  .01542173  00000+0  83660-1 0  9997
2 48593  53.0743 207.8948 0000406  84.2580 265.1527 15.11197554  5729
STARLINK-2251           
1 48594U 21041AT  26053.81882177  .00003165  00000+0  23118-3 0  9998
2 48594  53.0540 178.4632 0001408  66.0986 294.0151 15.06413342263246
STARLINK-2252           
1 48595U 21041AU  26053.83817055 -.00001613  00000+0 -89435-4 0  9997
2 48595  53.0553 208.2882 0001360  98.9100 261.2043 15.06404499264092
STARLINK-2253           
1 48596U 21041AV  26053.91668981  .01243101  00000+0  58539-1 0  9996
2 48596  53.0972 207.7136 0001636  68.6738   1.3160 15.16419599  5679
STARLINK-2255           
1 48597U 21041AW  26053.91668981  .01421762  00000+0  66525-1 0  9992
2 48597  53.0966 207.7446 0000630  47.8769 324.2941 15.16243956  5848
STARLINK-2713           
1 48602U 21041BB  26053.91668981  .01683986  00000+0  62879-1 0  9995
2 48602  53.1315 182.3646 0000967  96.9560 143.4096 15.24021044  5787
STARLINK-2714           
1 48603U 21041BC  26053.84369232  .00003416  00000+0  24813-3 0  9996
2 48603  53.0546 178.2644 0000812  73.3334 286.7744 15.06392300264517
STARLINK-2757           
1 48604U 21041BD  26053.84552250  .00002227  00000+0  16829-3 0  9998
2 48604  53.0564 208.2562 0001276  92.8814 267.2321 15.06410543264093
TYVAK-0130              
1 48606U 21041BF  26053.68173517  .00011216  00000+0  44649-3 0  9996
2 48606  52.9928 197.1699 0010986 168.2832 191.8423 15.25698057262890
SBIRS GEO-5 (USA 315)   
1 48618U 21042A   26053.83330917 -.00000261  00000+0  00000+0 0  9994
2 48618   5.2497 328.2589 0001606 334.7054 243.5347  1.00271180 17626
HAIYANG-2D              
1 48621U 21043A   26053.92214336 -.00000057  00000+0  21923-4 0  9990
2 48621  65.9964 229.1805 0010224 279.8975  80.0939 13.83372438240743
STARLINK-2739           
1 48639U 21044B   26053.91668981  .01734656  00000+0  65776-1 0  9998
2 48639  53.1287 182.3868 0000879  81.3953 231.8350 15.23409360  5737
STARLINK-2736           
1 48640U 21044C   26053.91668981  .01760266  00000+0  59391-1 0  9992
2 48640  53.1470 182.4191 0001164 115.1710   9.0457 15.27279351  5785
STARLINK-2754           
1 48641U 21044D   26053.83537636  .00013241  00000+0  45831-3 0  9995
2 48641  53.1598 182.8815 0001318  89.3261 270.7891 15.30205364261553
STARLINK-2646           
1 48642U 21044E   26053.65840500 -.00002404  00000+0 -69116-4 0  9997
2 48642  53.1600 183.7644 0000986  85.9813 274.1300 15.30174423261524
STARLINK-2704           
1 48643U 21044F   26053.82902801  .00013100  00000+0  45343-3 0  9998
2 48643  53.1603 182.8844 0001300  69.6326 290.4815 15.30215115261558
STARLINK-2695           
1 48644U 21044G   26053.77955312  .00010749  00000+0  37455-3 0  9999
2 48644  53.1602 183.3097 0001371  98.0685 262.0472 15.30198879261546
STARLINK-2732           
1 48646U 21044J   26053.75634821 -.00000817  00000+0 -15460-4 0  9998
2 48646  53.1617 183.2579 0001434  84.3271 275.7893 15.30197141261546
STARLINK-2521           
1 48648U 21044L   26053.74685995  .00004022  00000+0  14783-3 0  9993
2 48648  53.1623 183.2596 0001473  96.8961 263.2208 15.30201704261544
STARLINK-2673           
1 48649U 21044M   26053.74370232  .00000123  00000+0  16297-4 0  9990
2 48649  53.1615 183.2646 0001424  82.3044 277.8119 15.30188049261537
STARLINK-2672           
1 48650U 21044N   26053.88065972  .00004200  00000+0  15383-3 0  9993
2 48650  53.1598 182.7262 0001276  67.3906 292.7230 15.30204128261551
STARLINK-2731           
1 48651U 21044P   26053.74054260  .00004565  00000+0  16616-3 0  9991
2 48651  53.1615 183.3168 0001242  74.2737 285.8401 15.30198151261535
STARLINK-2727           
1 48652U 21044Q   26053.92318933  .00014916  00000+0  54902-3 0  9993
2 48652  53.0512 181.2699 0000490  96.7383 263.3672 15.28082336261576
STARLINK-2720           
1 48653U 21044R   26053.92699839  .00006098  00000+0  21798-3 0  9990
2 48653  53.1600 182.4297 0001343  79.7384 280.3768 15.30177647261560
STARLINK-2657           
1 48655U 21044T   26053.86484974  .00011841  00000+0  41084-3 0  9999
2 48655  53.1615 182.8190 0001426  90.7874 269.3290 15.30235468261555
STARLINK-2701           
1 48656U 21044U   26053.85115353  .00007029  00000+0  24924-3 0  9998
2 48656  53.1581 182.7841 0001261  80.7096 279.4047 15.30198667261553
STARLINK-2734           
1 48657U 21044V   26053.78267701  .00000480  00000+0  28329-4 0  9994
2 48657  53.1603 183.0878 0001521  74.9325 285.1845 15.30196493261546
STARLINK-2647           
1 48658U 21044W   26053.64573527 -.00000615  00000+0 -86443-5 0  9990
2 48658  53.1631 183.7210 0001467 116.2899 243.8252 15.30197635261520
STARLINK-2717           
1 48659U 21044X   26053.83850938  .00001589  00000+0  65762-4 0  9995
2 48659  53.1585 182.8252 0001135  85.6694 274.4437 15.30194808261556
